211.21.129.61@{"city": null, "region_code": null, "area_code": 0, "timezone": "Asia/Taipei", "dma_code": 0, "metro_code": null, "country_code3": "TWN", "latitude": 23.5, "postal_code": null, "longitude": 121.0, "country_code2": "TW", "country_name": "Taiwan", "continent_code": "AS"}
172.217.24.4@{"city": "Mountain View", "region_code": "CA", "area_code": 650, "timezone": "America/Los_Angeles", "dma_code": 807, "metro_code": "San Francisco, CA", "country_code3": "USA", "latitude": 37.41919999999999, "postal_code": "94043", "longitude": -122.0574, "country_code2": "US", "country_name": "United States", "continent_code": "NA"}
207.171.166.22@{"city": "Ashburn", "region_code": "VA", "area_code": 703, "timezone": "America/New_York", "dma_code": 511, "metro_code": "Washington, DC", "country_code3": "USA", "latitude": 39.048100000000005, "postal_code": "20149", "longitude": -77.4728, "country_code2": "US", "country_name": "United States", "continent_code": "NA"}
185.53.178.9@{"city": null, "region_code": null, "area_code": 0, "timezone": "Europe/Berlin", "dma_code": 0, "metro_code": null, "country_code3": "DEU", "latitude": 51.29929999999999, "postal_code": null, "longitude": 9.491000000000014, "country_code2": "DE", "country_name": "Germany", "continent_code": "EU"}
209.15.37.6@{"city": "Toronto", "region_code": "ON", "area_code": 0, "timezone": "America/Toronto", "dma_code": 0, "metro_code": null, "country_code3": "CAN", "latitude": 43.60210000000001, "postal_code": "m8w 4w3", "longitude": -79.5402, "country_code2": "CA", "country_name": "Canada", "continent_code": "NA"}
199.59.242.150@{"city": "New York", "region_code": "NY", "area_code": 212, "timezone": "America/New_York", "dma_code": 501, "metro_code": "New York, NY", "country_code3": "USA", "latitude": 40.73910000000001, "postal_code": "10010", "longitude": -73.9826, "country_code2": "US", "country_name": "United States", "continent_code": "NA"}
58.220.77.153@{"city": "Nanjing", "region_code": "04", "area_code": 0, "timezone": "Asia/Shanghai", "dma_code": 0, "metro_code": null, "country_code3": "CHN", "latitude": 32.0617, "postal_code": null, "longitude": 118.77780000000001, "country_code2": "CN", "country_name": "China", "continent_code": "AS"}
183.79.250.251@{"city": "Akasaka", "region_code": "01", "area_code": 0, "timezone": "Asia/Tokyo", "dma_code": 0, "metro_code": null, "country_code3": "JPN", "latitude": 34.849999999999994, "postal_code": "441-0202", "longitude": 137.3, "country_code2": "JP", "country_name": "Japan", "continent_code": "AS"}
85.117.34.36@{"city": null, "region_code": null, "area_code": 0, "timezone": "Asia/Tbilisi", "dma_code": 0, "metro_code": null, "country_code3": "GEO", "latitude": 42.0, "postal_code": null, "longitude": 43.5, "country_code2": "GE", "country_name": "Georgia", "continent_code": "AS"}
151.101.88.144@{"city": "San Francisco", "region_code": "CA", "area_code": 415, "timezone": "America/Los_Angeles", "dma_code": 807, "metro_code": "San Francisco, CA", "country_code3": "USA", "latitude": 37.7697, "postal_code": "94107", "longitude": -122.39330000000001, "country_code2": "US", "country_name": "United States", "continent_code": "NA"}
152.195.56.83@{"city": "Ashburn", "region_code": "VA", "area_code": 703, "timezone": "America/New_York", "dma_code": 511, "metro_code": "Washington, DC", "country_code3": "USA", "latitude": 39.018, "postal_code": "20147", "longitude": -77.539, "country_code2": "US", "country_name": "United States", "continent_code": "NA"}
146.141.13.50@{"city": "Johannesburg", "region_code": "06", "area_code": 0, "timezone": "Africa/Johannesburg", "dma_code": 0, "metro_code": null, "country_code3": "ZAF", "latitude": -26.23089999999999, "postal_code": "2000", "longitude": 28.058300000000003, "country_code2": "ZA", "country_name": "South Africa", "continent_code": "AF"}
195.229.134.47@{"city": null, "region_code": null, "area_code": 0, "timezone": "Asia/Dubai", "dma_code": 0, "metro_code": null, "country_code3": "ARE", "latitude": 24.0, "postal_code": null, "longitude": 54.0, "country_code2": "AE", "country_name": "United Arab Emirates", "continent_code": "AS"}
186.33.208.25@{"city": "Buenos Aires", "region_code": "07", "area_code": 0, "timezone": "America/Argentina/Buenos_Aires", "dma_code": 0, "metro_code": null, "country_code3": "ARG", "latitude": -34.60329999999999, "postal_code": "34034", "longitude": -58.381600000000006, "country_code2": "AR", "country_name": "Argentina", "continent_code": "SA"}
2.18.127.238@{"city": null, "region_code": null, "area_code": 0, "timezone": null, "dma_code": 0, "metro_code": null, "country_code3": "EU", "latitude": 47.0, "postal_code": null, "longitude": 8.0, "country_code2": "EU", "country_name": "Europe", "continent_code": "EU"}
162.222.97.150@{"city": null, "region_code": null, "area_code": 0, "timezone": null, "dma_code": 0, "metro_code": null, "country_code3": "USA", "latitude": 37.751000000000005, "postal_code": null, "longitude": -97.822, "country_code2": "US", "country_name": "United States", "continent_code": "NA"}
31.210.244.107@{"city": null, "region_code": null, "area_code": 0, "timezone": "Europe/London", "dma_code": 0, "metro_code": null, "country_code3": "GBR", "latitude": 51.496399999999994, "postal_code": null, "longitude": -0.12239999999999895, "country_code2": "GB", "country_name": "United Kingdom", "continent_code": "EU"}
130.225.72.9@{"city": "Copenhagen", "region_code": "17", "area_code": 0, "timezone": "Europe/Copenhagen", "dma_code": 0, "metro_code": null, "country_code3": "DNK", "latitude": 55.66669999999999, "postal_code": "1513", "longitude": 12.583300000000008, "country_code2": "DK", "country_name": "Denmark", "continent_code": "EU"}
193.104.37.98@{"city": null, "region_code": null, "area_code": 0, "timezone": "Europe/Brussels", "dma_code": 0, "metro_code": null, "country_code3": "BEL", "latitude": 50.849999999999994, "postal_code": null, "longitude": 4.349999999999994, "country_code2": "BE", "country_name": "Belgium", "continent_code": "EU"}
192.185.169.113@{"city": "Houston", "region_code": "TX", "area_code": 713, "timezone": "America/Chicago", "dma_code": 618, "metro_code": "Houston, TX", "country_code3": "USA", "latitude": 29.830099999999987, "postal_code": "77092", "longitude": -95.4739, "country_code2": "US", "country_name": "United States", "continent_code": "NA"}
202.3.77.92@{"city": "Kanpur", "region_code": "36", "area_code": 0, "timezone": "Asia/Calcutta", "dma_code": 0, "metro_code": null, "country_code3": "IND", "latitude": 26.466700000000003, "postal_code": "208016", "longitude": 80.35000000000002, "country_code2": "IN", "country_name": "India", "continent_code": "AS"}
77.73.57.78@{"city": "Genzano Di Roma", "region_code": "07", "area_code": 0, "timezone": "Europe/Rome", "dma_code": 0, "metro_code": null, "country_code3": "ITA", "latitude": 41.7071, "postal_code": "00045", "longitude": 12.688999999999993, "country_code2": "IT", "country_name": "Italy", "continent_code": "EU"}
222.165.180.150@{"city": null, "region_code": null, "area_code": 0, "timezone": "Asia/Colombo", "dma_code": 0, "metro_code": null, "country_code3": "LKA", "latitude": 7.0, "postal_code": null, "longitude": 81.0, "country_code2": "LK", "country_name": "Sri Lanka", "continent_code": "AS"}
60.246.84.35@{"city": null, "region_code": null, "area_code": 0, "timezone": "Asia/Macao", "dma_code": 0, "metro_code": null, "country_code3": "MAC", "latitude": 22.16669999999999, "postal_code": null, "longitude": 113.55000000000001, "country_code2": "MO", "country_name": "Macau", "continent_code": "AS"}
103.14.3.1@{"city": null, "region_code": null, "area_code": 0, "timezone": null, "dma_code": 0, "metro_code": null, "country_code3": "NZL", "latitude": -41.0, "postal_code": null, "longitude": 174.0, "country_code2": "NZ", "country_name": "New Zealand", "continent_code": "OC"}
